{
  "links" : {
    "next" : "https://api.nasa.gov/neo/rest/v1/feed?start_date=1998-04-09&end_date=1998-04-09&detailed=true&api_key=t0TVs3DtDT2H8Oy2Zy8m2eVrNsAVKAexjcZXUckd",
    "prev" : "https://api.nasa.gov/neo/rest/v1/feed?start_date=1998-04-07&end_date=1998-04-07&detailed=true&api_key=t0TVs3DtDT2H8Oy2Zy8m2eVrNsAVKAexjcZXUckd",
    "self" : "https://api.nasa.gov/neo/rest/v1/feed?start_date=1998-04-08&end_date=1998-04-08&detailed=true&api_key=t0TVs3DtDT2H8Oy2Zy8m2eVrNsAVKAexjcZXUckd"
  },
  "element_count" : 2,
  "near_earth_objects" : {
    "1998-04-08" : [ {
      "links" : {
        "self" : "https://api.nasa.gov/neo/rest/v1/neo/3409432?api_key=t0TVs3DtDT2H8Oy2Zy8m2eVrNsAVKAexjcZXUckd"
      },
      "neo_reference_id" : "3409432",
      "name" : "(2008 GB110)",
      "nasa_jpl_url" : "http://ssd.jpl.nasa.gov/sbdb.cgi?sstr=3409432",
      "absolute_magnitude_h" : 19.7,
      "estimated_diameter" : {
        "kilometers" : {
          "estimated_diameter_min" : 0.3051792326,
          "estimated_diameter_max" : 0.6824015094
        },
        "meters" : {
          "estimated_diameter_min" : 305.1792325939,
          "estimated_diameter_max" : 682.4015094011
        },
        "miles" : {
          "estimated_diameter_min" : 0.1896295249,
          "estimated_diameter_max" : 0.4240245083
        },
        "feet" : {
          "estimated_diameter_min" : 1001.2442334633,
          "estimated_diameter_max" : 2238.8501681036
        }
      },
      "is_potentially_hazardous_asteroid" : false,
      "close_approach_data" : [ {
        "close_approach_date" : "1998-04-08",
        "epoch_date_close_approach" : 892018800000,
        "relative_velocity" : {
          "kilometers_per_second" : "19.8938604853",
          "kilometers_per_hour" : "71617.8977472384",
          "miles_per_hour" : "44500.576519666"
        },
        "miss_distance" : {
          "astronomical" : "0.3687227852",
          "lunar" : "143.4331665039",
          "kilometers" : "55160144",
          "miles" : "34274924"
        },
        "orbiting_body" : "Earth"
      } ],
      "orbital_data" : {
        "orbit_id" : "32",
        "orbit_determination_date" : "2017-04-06 09:03:41",
        "orbit_uncertainty" : "0",
        "minimum_orbit_intersection" : ".317019",
        "jupiter_tisserand_invariant" : "3.739",
        "epoch_osculation" : "2458000.5",
        "eccentricity" : ".3262632764503872",
        "semi_major_axis" : "1.838009840076851",
        "inclination" : "36.11801243866999",
        "ascending_node_longitude" : "203.5887520204638",
        "orbital_period" : "910.1650925583451",
        "perihelion_distance" : "1.238334727505326",
        "perihelion_argument" : "315.0836904537169",
        "aphelion_distance" : "2.437684952648377",
        "perihelion_time" : "2458157.811789721001",
        "mean_anomaly" : "297.7780528361341",
        "mean_motion" : ".3955326379174695",
        "equinox" : "J2000"
      }
    }, {
      "links" : {
        "self" : "https://api.nasa.gov/neo/rest/v1/neo/3775093?api_key=t0TVs3DtDT2H8Oy2Zy8m2eVrNsAVKAexjcZXUckd"
      },
      "neo_reference_id" : "3775093",
      "name" : "(2017 KR31)",
      "nasa_jpl_url" : "http://ssd.jpl.nasa.gov/sbdb.cgi?sstr=3775093",
      "absolute_magnitude_h" : 24.159,
      "estimated_diameter" : {
        "kilometers" : {
          "estimated_diameter_min" : 0.0391520924,
          "estimated_diameter_max" : 0.08754674
        },
        "meters" : {
          "estimated_diameter_min" : 39.1520923685,
          "estimated_diameter_max" : 87.5467399974
        },
        "miles" : {
          "estimated_diameter_min" : 0.0243279748,
          "estimated_diameter_max" : 0.0543990054
        },
        "feet" : {
          "estimated_diameter_min" : 128.4517507264,
          "estimated_diameter_max" : 287.2268464531
        }
      },
      "is_potentially_hazardous_asteroid" : false,
      "close_approach_data" : [ {
        "close_approach_date" : "1998-04-08",
        "epoch_date_close_approach" : 892018800000,
        "relative_velocity" : {
          "kilometers_per_second" : "12.4113574686",
          "kilometers_per_hour" : "44680.886886866",
          "miles_per_hour" : "27762.965521453"
        },
        "miss_distance" : {
          "astronomical" : "0.2522780513",
          "lunar" : "98.1361618042",
          "kilometers" : "37740260",
          "miles" : "23450710"
        },
        "orbiting_body" : "Earth"
      } ],
      "orbital_data" : {
        "orbit_id" : "6",
        "orbit_determination_date" : "2017-09-18 06:54:21",
        "orbit_uncertainty" : "7",
        "minimum_orbit_intersection" : ".0653622",
        "jupiter_tisserand_invariant" : "6.856",
        "epoch_osculation" : "2458000.5",
        "eccentricity" : ".2785101058033511",
        "semi_major_axis" : ".8534116727507155",
        "inclination" : "12.60480869583248",
        "ascending_node_longitude" : "239.6589954922578",
        "orbital_period" : "287.9627384726205",
        "perihelion_distance" : ".615727897479099",
        "perihelion_argument" : "169.6718498005822",
        "aphelion_distance" : "1.091095448022332",
        "perihelion_time" : "2458021.114818086067",
        "mean_anomaly" : "334.2281430217414",
        "mean_motion" : "1.250161746306037",
        "equinox" : "J2000"
      }
    } ]
  }
}